start=new Date('2022-05-26T00:00:00.000Z').valueOf();
sats=[{"GP_ID":"204538961","TLE_LINE1":"1 50198U 21125AU  22145.79030102  .00000416  00000-0  44268-4 0  9999","CENTER_NAME":"EARTH","NORAD_CAT_ID":"50198","TIME_SYSTEM":"UTC","EPOCH":"2022-05-25T18:58:02.008128","FILE":"3464394","REV_AT_EPOCH":"2781","EPHEMERIS_TYPE":"0","APOAPSIS":"540.950","RCS_SIZE":"LARGE","MEAN_MOTION_DDOT":"0.0000000000000","CLASSIFICATION_TYPE":"U","MEAN_ELEMENT_THEORY":"SGP4","REF_FRAME":"TEME","INCLINATION":"53.2207","PERIAPSIS":"538.577","OBJECT_TYPE":"PAYLOAD","ELEMENT_SET_NO":"999","OBJECT_NAME":"STARLINK-3264","DECAY_DATE":null,"TLE_LINE2":"2 50198  53.2207 331.6835 0001715  51.3873 308.7273 15.08834162 27810","LAUNCH_DATE":"2021-12-18","MEAN_MOTION":"15.08834162","ARG_OF_PERICENTER":"51.3873","ECCENTRICITY":"0.00017150","MEAN_MOTION_DOT":"0.00000416","SEMIMAJOR_AXIS":"6917.898","SITE":"AFWTR","OBJECT_ID":"2021-125AU","BSTAR":"0.00004426800000","COUNTRY_CODE":"US","MEAN_ANOMALY":"308.7273","PERIOD":"95.438","RA_OF_ASC_NODE":"331.6835"},{"OBJECT_ID":"2021-125AV","SITE":"AFWTR","SEMIMAJOR_AXIS":"6917.871","COUNTRY_CODE":"US","BSTAR":"0.00004264800000","PERIOD":"95.437","MEAN_ANOMALY":"315.9270","RA_OF_ASC_NODE":"331.4684","OBJECT_TYPE":"PAYLOAD","PERIAPSIS":"538.278","INCLINATION":"53.2148","DECAY_DATE":null,"OBJECT_NAME":"STARLINK-3270","ELEMENT_SET_NO":"999","LAUNCH_DATE":"2021-12-18","TLE_LINE2":"2 50199  53.2148 331.4684 0002108  44.1890 315.9270 15.08842915 27813","MEAN_MOTION_DOT":"0.00000391","ARG_OF_PERICENTER":"44.1890","ECCENTRICITY":"0.00021080","MEAN_MOTION":"15.08842915","EPOCH":"2022-05-25T20:06:54.752544","FILE":"3464394","RCS_SIZE":"LARGE","APOAPSIS":"541.195","EPHEMERIS_TYPE":"0","REV_AT_EPOCH":"2781","REF_FRAME":"TEME","MEAN_ELEMENT_THEORY":"SGP4","CLASSIFICATION_TYPE":"U","MEAN_MOTION_DDOT":"0.0000000000000","GP_ID":"204540213","CENTER_NAME":"EARTH","TLE_LINE1":"1 50199U 21125AV  22145.83813371  .00000391  00000-0  42648-4 0  9994","NORAD_CAT_ID":"50199","TIME_SYSTEM":"UTC"},{"MEAN_MOTION":"15.08837736","ARG_OF_PERICENTER":"47.4530","ECCENTRICITY":"0.00019260","MEAN_MOTION_DOT":"0.00001426","TLE_LINE2":"2 50200  53.2197 331.6418 0001926  47.4530 312.6625 15.08837736 27825","LAUNCH_DATE":"2021-12-18","ELEMENT_SET_NO":"999","OBJECT_NAME":"STARLINK-3235","DECAY_DATE":null,"INCLINATION":"53.2197","PERIAPSIS":"538.420","OBJECT_TYPE":"PAYLOAD","PERIOD":"95.438","RA_OF_ASC_NODE":"331.6418","MEAN_ANOMALY":"312.6625","BSTAR":"0.00010771000000","COUNTRY_CODE":"US","SEMIMAJOR_AXIS":"6917.887","SITE":"AFWTR","OBJECT_ID":"2021-125AW","TIME_SYSTEM":"UTC","NORAD_CAT_ID":"50200","TLE_LINE1":"1 50200U 21125AW  22145.79765776  .00001426  00000-0  10771-3 0  9998","CENTER_NAME":"EARTH","GP_ID":"204540464","MEAN_MOTION_DDOT":"0.0000000000000","CLASSIFICATION_TYPE":"U","MEAN_ELEMENT_THEORY":"SGP4","REF_FRAME":"TEME","REV_AT_EPOCH":"2782","EPHEMERIS_TYPE":"0","APOAPSIS":"541.085","RCS_SIZE":"LARGE","FILE":"3464394","EPOCH":"2022-05-25T19:08:37.630464"},{"PERIOD":"95.438","MEAN_ANOMALY":"309.4674","RA_OF_ASC_NODE":"331.7005","COUNTRY_CODE":"US","BSTAR":"0.00011338000000","OBJECT_ID":"2021-125AX","SITE":"AFWTR","SEMIMAJOR_AXIS":"6917.888","ARG_OF_PERICENTER":"50.6458","ECCENTRICITY":"0.00015870","MEAN_MOTION_DOT":"0.00001517","MEAN_MOTION":"15.08837658","TLE_LINE2":"2 50201  53.2213 331.7005 0001587  50.6458 309.4674 15.08837658 27333","LAUNCH_DATE":"2021-12-18","OBJECT_NAME":"STARLINK-3255","DECAY_DATE":null,"ELEMENT_SET_NO":"999","OBJECT_TYPE":"PAYLOAD","INCLINATION":"53.2213","PERIAPSIS":"538.655","MEAN_ELEMENT_THEORY":"SGP4","REF_FRAME":"TEME","MEAN_MOTION_DDOT":"0.0000000000000","CLASSIFICATION_TYPE":"U","EPHEMERIS_TYPE":"0","RCS_SIZE":"LARGE","APOAPSIS":"540.850","REV_AT_EPOCH":"2733","FILE":"3464339","EPOCH":"2022-05-25T18:52:44.260032","TIME_SYSTEM":"UTC","NORAD_CAT_ID":"50201","TLE_LINE1":"1 50201U 21125AX  22145.78662338  .00001517  00000-0  11338-3 0  9999","CENTER_NAME":"EARTH","GP_ID":"204514984"},{"GP_ID":"204515275","TLE_LINE1":"1 50202U 21125AY  22145.83445327 -.00000017  00000-0  17006-4 0  9997","CENTER_NAME":"EARTH","NORAD_CAT_ID":"50202","TIME_SYSTEM":"UTC","EPOCH":"2022-05-25T20:01:36.762528","FILE":"3464337","REV_AT_EPOCH":"2733","EPHEMERIS_TYPE":"0","APOAPSIS":"541.063","RCS_SIZE":"LARGE","MEAN_MOTION_DDOT":"0.0000000000000","CLASSIFICATION_TYPE":"U","MEAN_ELEMENT_THEORY":"SGP4","REF_FRAME":"TEME","INCLINATION":"53.2173","PERIAPSIS":"538.411","OBJECT_TYPE":"PAYLOAD","ELEMENT_SET_NO":"999","OBJECT_NAME":"STARLINK-3256","DECAY_DATE":null,"TLE_LINE2":"2 50202  53.2173 331.4860 0001917  57.1822 302.9354 15.08842652 27332","LAUNCH_DATE":"2021-12-18","MEAN_MOTION":"15.08842652","ARG_OF_PERICENTER":"57.1822","ECCENTRICITY":"0.00019170","MEAN_MOTION_DOT":"-0.00000017","SEMIMAJOR_AXIS":"6917.872","OBJECT_ID":"2021-125AY","SITE":"AFWTR","BSTAR":"0.00001700600000","COUNTRY_CODE":"US","MEAN_ANOMALY":"302.9354","PERIOD":"95.437","RA_OF_ASC_NODE":"331.4860"},{"TLE_LINE1":"1 50203U 21125AZ  22145.79398676  .00000051  00000-0  21296-4 0  9990","CENTER_NAME":"EARTH","GP_ID":"204539713","TIME_SYSTEM":"UTC","NORAD_CAT_ID":"50203","FILE":"3464394","EPOCH":"2022-05-25T19:03:20.456064","MEAN_MOTION_DDOT":"0.0000000000000","CLASSIFICATION_TYPE":"U","MEAN_ELEMENT_THEORY":"SGP4","REF_FRAME":"TEME","REV_AT_EPOCH":"2787","EPHEMERIS_TYPE":"0","APOAPSIS":"541.008","RCS_SIZE":"LARGE","ELEMENT_SET_NO":"999","OBJECT_NAME":"STARLINK-3257","DECAY_DATE":null,"INCLINATION":"53.2210","PERIAPSIS":"538.533","OBJECT_TYPE":"PAYLOAD","MEAN_MOTION":"15.08831878","ECCENTRICITY":"0.00017890","ARG_OF_PERICENTER":"49.7399","MEAN_MOTION_DOT":"0.00000051","LAUNCH_DATE":"2021-12-18","TLE_LINE2":"2 50203  53.2210 331.6676 0001789  49.7399 310.3749 15.08831878 27873","SEMIMAJOR_AXIS":"6917.905","OBJECT_ID":"2021-125AZ","SITE":"AFWTR","PERIOD":"95.438","MEAN_ANOMALY":"310.3749","RA_OF_ASC_NODE":"331.6676","BSTAR":"0.00002129600000","COUNTRY_CODE":"US"},{"TLE_LINE1":"1 50204U 21125BA  22145.84181646  .00001300  00000-0  99778-4 0  9992","CENTER_NAME":"EARTH","GP_ID":"204539964","TIME_SYSTEM":"UTC","NORAD_CAT_ID":"50204","FILE":"3464394","EPOCH":"2022-05-25T20:12:12.942144","MEAN_ELEMENT_THEORY":"SGP4","REF_FRAME":"TEME","MEAN_MOTION_DDOT":"0.0000000000000","CLASSIFICATION_TYPE":"U","EPHEMERIS_TYPE":"0","APOAPSIS":"541.053","RCS_SIZE":"LARGE","REV_AT_EPOCH":"2787","OBJECT_NAME":"STARLINK-3254","DECAY_DATE":null,"ELEMENT_SET_NO":"999","OBJECT_TYPE":"PAYLOAD","INCLINATION":"53.2197","PERIAPSIS":"538.412","ECCENTRICITY":"0.00019090","ARG_OF_PERICENTER":"49.5364","MEAN_MOTION_DOT":"0.00001300","MEAN_MOTION":"15.08844198","TLE_LINE2":"2 50204  53.2197 331.4499 0001909  49.5364 310.5794 15.08844198 27874","LAUNCH_DATE":"2021-12-18","OBJECT_ID":"2021-125BA","SITE":"AFWTR","SEMIMAJOR_AXIS":"6917.868","MEAN_ANOMALY":"310.5794","PERIOD":"95.437","RA_OF_ASC_NODE":"331.4499","COUNTRY_CODE":"US","BSTAR":"0.00009977800000"},{"OBJECT_ID":"2021-125BB","SITE":"AFWTR","SEMIMAJOR_AXIS":"6843.067","PERIOD":"93.894","MEAN_ANOMALY":"275.4499","RA_OF_ASC_NODE":"302.2823","COUNTRY_CODE":"US","BSTAR":"-0.00712140000000","DECAY_DATE":null,"OBJECT_NAME":"STARLINK-3260","ELEMENT_SET_NO":"999","OBJECT_TYPE":"PAYLOAD","PERIAPSIS":"463.966","INCLINATION":"53.2157","MEAN_MOTION_DOT":"-0.00228341","ARG_OF_PERICENTER":"84.6665","ECCENTRICITY":"0.00014120","MEAN_MOTION":"15.33650996","TLE_LINE2":"2 50205  53.2157 302.2823 0001412  84.6665 275.4499 15.33650996 28232","LAUNCH_DATE":"2021-12-18","FILE":"3464394","EPOCH":"2022-05-25T21:39:32.869728","REF_FRAME":"TEME","MEAN_ELEMENT_THEORY":"SGP4","CLASSIFICATION_TYPE":"U","MEAN_MOTION_DDOT":"0.0000000000000","APOAPSIS":"465.899","RCS_SIZE":"LARGE","EPHEMERIS_TYPE":"0","REV_AT_EPOCH":"2823","CENTER_NAME":"EARTH","TLE_LINE1":"1 50205U 21125BB  22145.90246377 -.00228341  00000-0 -71214-2 0  9994","GP_ID":"204538712","TIME_SYSTEM":"UTC","NORAD_CAT_ID":"50205"},{"TIME_SYSTEM":"UTC","NORAD_CAT_ID":"50206","TLE_LINE1":"1 50206U 21125BC  22145.77926299  .00000705  00000-0  62410-4 0  9998","CENTER_NAME":"EARTH","GP_ID":"204538962","MEAN_ELEMENT_THEORY":"SGP4","REF_FRAME":"TEME","MEAN_MOTION_DDOT":"0.0000000000000","CLASSIFICATION_TYPE":"U","EPHEMERIS_TYPE":"0","RCS_SIZE":"LARGE","APOAPSIS":"541.028","REV_AT_EPOCH":"2573","FILE":"3464394","EPOCH":"2022-05-25T18:42:08.322336","ARG_OF_PERICENTER":"59.9033","ECCENTRICITY":"0.00018770","MEAN_MOTION_DOT":"0.00000705","MEAN_MOTION":"15.08845073","LAUNCH_DATE":"2021-12-18","TLE_LINE2":"2 50206  53.2212 331.7254 0001877  59.9033 300.2145 15.08845073 25730","OBJECT_NAME":"STARLINK-3258","DECAY_DATE":null,"ELEMENT_SET_NO":"999","OBJECT_TYPE":"PAYLOAD","INCLINATION":"53.2212","PERIAPSIS":"538.431","MEAN_ANOMALY":"300.2145","PERIOD":"95.437","RA_OF_ASC_NODE":"331.7254","COUNTRY_CODE":"US","BSTAR":"0.00006241000000","OBJECT_ID":"2021-125BC","SITE":"AFWTR","SEMIMAJOR_AXIS":"6917.865"},{"TIME_SYSTEM":"UTC","NORAD_CAT_ID":"50207","CENTER_NAME":"EARTH","TLE_LINE1":"1 50207U 21125BD  22145.78293715  .00001348  00000-0  10279-3 0  9999","GP_ID":"204514982","CLASSIFICATION_TYPE":"U","MEAN_MOTION_DDOT":"0.0000000000000","REF_FRAME":"TEME","MEAN_ELEMENT_THEORY":"SGP4","REV_AT_EPOCH":"2580","APOAPSIS":"541.258","RCS_SIZE":"LARGE","EPHEMERIS_TYPE":"0","FILE":"3464339","EPOCH":"2022-05-25T18:47:25.769760","MEAN_MOTION":"15.08842896","MEAN_MOTION_DOT":"0.00001348","ARG_OF_PERICENTER":"43.3553","ECCENTRICITY":"0.00021990","TLE_LINE2":"2 50207  53.2195 331.7107 0002199  43.3553 316.7612 15.08842896 25809","LAUNCH_DATE":"2021-12-18","ELEMENT_SET_NO":"999","DECAY_DATE":null,"OBJECT_NAME":"STARLINK-3262","PERIAPSIS":"538.215","INCLINATION":"53.2195","OBJECT_TYPE":"PAYLOAD","MEAN_ANOMALY":"316.7612","PERIOD":"95.437","RA_OF_ASC_NODE":"331.7107","BSTAR":"0.00010279000000","COUNTRY_CODE":"US","SEMIMAJOR_AXIS":"6917.872","OBJECT_ID":"2021-125BD","SITE":"AFWTR"}];
